[{"OBJECT_NAME":"NANOSATC-BR1","OBJECT_ID":"2014-033Q","EPOCH":"2026-03-09T23:35:03.168384","MEAN_MOTION":15.28136801,"ECCENTRICITY":0.00046435,"INCLINATION":98.0845,"RA_OF_ASC_NODE":92.7804,"ARG_OF_PERICENTER":147.6715,"MEAN_ANOMALY":212.4808,"EPHEMERIS_TYPE":0,"CLASSIFICATION_TYPE":"U","NORAD_CAT_ID":40024,"ELEMENT_SET_NO":999,"REV_AT_EPOCH":63881,"BSTAR":0.00074295057,"MEAN_MOTION_DOT":0.00020336,"MEAN_MOTION_DDOT":0},{"OBJECT_NAME":"STARLINK-31873","OBJECT_ID":"2024-093J","EPOCH":"2026-03-09T11:17:49.249824","MEAN_MOTION":15.27574181,"ECCENTRICITY":0.00013789,"INCLINATION":43.0001,"RA_OF_ASC_NODE":209.9834,"ARG_OF_PERICENTER":261.3133,"MEAN_ANOMALY":98.7563,"EPHEMERIS_TYPE":0,"CLASSIFICATION_TYPE":"U","NORAD_CAT_ID":59790,"ELEMENT_SET_NO":999,"REV_AT_EPOCH":10266,"BSTAR":-9.851285e-6,"MEAN_MOTION_DOT":-5.33e-6,"MEAN_MOTION_DDOT":0}]
