NANOSATC-BR1            
1 40024U 14033Q   26068.98267556  .00020336  00000+0  74295-3 0  9994
2 40024  98.0845  92.7804 0004644 147.6715 212.4808 15.28136801638811
STARLINK-31873          
1 59790U 24093J   26068.47070891 -.00000533  00000+0 -98513-5 0  9999
2 59790  43.0001 209.9834 0001378 261.3133  98.7563 15.27574181102667
